KUIPER-00614            
1 69773U 26151L   26204.04137224  .00029081  00000+0  76716-3 0  9993
2 69773  51.8797 142.3282 0003222 153.6537 206.4614 15.38242293  3221
KUIPER-00615            
1 69774U 26151M   26204.25002315  .00067889  00000+0  20080-2 0  9999
2 69774  51.8778 141.5040 0006357 176.1233 176.6715 15.34264948  2090
KUIPER-00616            
1 69775U 26151N   26204.10390814  .00034208  00000+0  89246-3 0  9997
2 69775  51.8781 142.0022 0003438 159.7088 200.4037 15.38499856  3235
KUIPER-00617            
1 69776U 26151P   26204.24099128  .00021514  00000+0  57688-3 0  9998
2 69776  51.8793 141.4165 0004094 169.5227 190.5846 15.37911621  3250
KUIPER-00619            
1 69777U 26151Q   26204.23077014  .00027860  00000+0  72437-3 0  9997
2 69777  51.8817 141.3479 0001351  78.4198 281.6941 15.38714521  3252
KUIPER-00621            
1 69778U 26151R   26204.23402911  .00028900  00000+0  75771-3 0  9996
2 69778  51.8794 141.3750 0001759 129.0977 231.0167 15.38437028  3252
KUIPER-00622            
1 69779U 26151S   26204.25002315 -.00658722  00000+0 -20847-1 0  9998
2 69779  51.8738 141.5183 0007013 171.9423 168.8632 15.34508982  3881
KUIPER-00623            
1 69780U 26151T   26204.24580369  .00023915  00000+0  64807-3 0  9993
2 69780  51.8775 141.4488 0004756 157.0535 203.0665 15.37515840  3254
KUIPER-00626            
1 69781U 26151U   26204.20732218  .00013586  00000+0  40953-3 0  9991
2 69781  51.8721 141.9274 0009873 191.6787 168.3971 15.34567810  3245
KUIPER-00627            
1 69782U 26151V   26204.08007508  .00017758  00000+0  53409-3 0  9990
2 69782  51.8700 142.5708 0010462 198.9015 161.1584 15.34409383  3221
KUIPER-00629            
1 69783U 26151W   26204.25002315 -.01066271  00000+0 -46969-1 0  9999
2 69783  51.8829 141.9589 0005706 190.8308 318.4531 15.24274123  3573
KUIPER-00631            
1 69784U 26151X   26204.25002315 -.01122969  00000+0 -49789-1 0  9990
2 69784  51.8791 141.9113 0007611 190.3629 328.6148 15.24193176  1307
KUIPER-00634            
1 69785U 26151Y   26204.24171351  .00027215  00000+0  72662-3 0  9990
2 69785  51.8773 141.4225 0003366 168.8537 191.2525 15.37906810  3258
KUIPER-00639            
1 69786U 26151Z   26204.20421521  .00020374  00000+0  60762-3 0  9991
2 69786  51.8687 141.9041 0009800 187.8748 172.2085 15.34586559  3248
KUIPER-00641            
1 69787U 26151AA  26204.08227040  .00018261  00000+0  55646-3 0  9995
2 69787  51.8687 142.5824 0011333 194.3888 165.6777 15.33965387  3228
KUIPER-00644            
1 69788U 26151AB  26204.19331042  .00015985  00000+0  45135-3 0  9998
2 69788  51.8736 141.8409 0007751 189.2475 170.8369 15.36501852  3231
KUIPER-00646            
1 69789U 26151AC  26204.20109917 -.00005524  00000+0 -14752-3 0  9996
2 69789  51.8702 141.8872 0010051 192.8462 167.2269 15.35284862  3240
KUIPER-00647            
1 69790U 26151AD  26204.20795381 -.00076712  00000+0 -22667-2 0  9994
2 69790  51.8669 141.9232 0012966 188.9310 171.1447 15.34489453  3244
KUIPER-00662            
1 69791U 26151AE  26204.25002315 -.00354382  00000+0 -14013-1 0  9995
2 69791  51.8782 141.8768 0008003 180.9245 319.3026 15.26480712  2260
LINK                    
1 69792U 26152A   26202.48382856  .00104063  00000+0  87541-3 0  9996
2 69792  20.5930 278.9369 0023518  85.5169 274.7964 15.67728585  2848
2026-152B               
1 69793U 26152B   26204.28826187  .00057949  00000+0  53447-3 0  9995
2 69793  20.5971 265.4620 0023163 103.6853 256.6174 15.65448636  3121
ISS OBJECT YJ           
1 69794U 98067YJ  26204.04396693  .00039447  00000+0  68495-3 0  9990
2 69794  51.6312 122.5055 0007661 337.9458  22.1200 15.50414828  3215
ISS OBJECT YK           
1 69795U 98067YK  26204.03611839  .00068607  00000+0  11413-2 0  9999
2 69795  51.6317 122.4543 0006351 343.2849  16.7930 15.51387982  3211
ISS OBJECT YL           
1 69796U 98067YL  26204.03860149  .00053398  00000+0  90359-3 0  9998
2 69796  51.6318 122.4700 0008467 338.6492  21.4143 15.50999758  3207
ISS OBJECT YM           
1 69797U 98067YM  26201.07401881  .00050643  00000+0  86101-3 0  9994
2 69797  51.6311 137.1739 0009481 319.6197  40.4088 15.50880460  2739
ISS OBJECT YN           
1 69798U 98067YN  26203.00906778  .00033070  00000+0  57202-3 0  9990
2 69798  51.6321 127.5954 0009085 339.1650  20.8968 15.50596645  3058
PROVES-ELECTRA          
1 69799U 98067YP  26204.03811608  .00047286  00000+0  80124-3 0  9995
2 69799  51.6322 122.4661 0009539 330.7825  29.2630 15.51004344  3201
QIANFAN-201             
1 69800U 26153A   26204.25456877  .00000340  00000+0  14730-3 0  9992
2 69800  88.9931 358.1199 0008665 151.9972 208.1687 14.22096243  2690
QIANFAN-202             
1 69801U 26153B   26204.22204947  .00000198  00000+0  88509-4 0  9996
2 69801  88.9931 358.1338 0007639 151.5595 208.6013 14.18845442  2688
QIANFAN-203             
1 69802U 26153C   26204.21129293  .00000135  00000+0  57534-4 0  9991
2 69802  88.9930 358.1321 0008206 153.3427 206.8187 14.19389774  2689
